LEMUR-2-KREMPEL-BRO1    
1 63357U 25061G   26095.23685834  .00005571  00000+0  30867-3 0  9993
2 63357  97.5568  71.6231 0020198 136.7340 223.5483 15.14043348 56595
LEMUR-2-LANGER2SPACE    
1 63358U 25061H   26095.18271005  .00005443  00000+0  30451-3 0  9996
2 63358  97.5576  71.4127 0017958 144.6346 215.6080 15.13739157 56573
LEMUR-2-BALTO           
1 63395U 25052BH  26095.19350666  .00009260  00000+0  76133-3 0  9997
2 63395  97.6985 349.6896 0000710  89.0118 271.1186 14.99363344 57826
LEMUR-2-KRISH           
1 64561U 25135AK  26095.29509039  .00007709  00000+0  70043-3 0  9996
2 64561  97.7652 210.7556 0001158  95.9812 264.1541 14.95528805 43024
LEMUR-2-HUBBLE-4        
1 64565U 25135AP  26095.29481290  .00002475  00000+0  24355-3 0  9998
2 64565  97.7602 210.1242 0003267 146.9163 213.2261 14.92996184 42993
LEMUR-2-SEJONG-2        
1 64586U 25135BL  26095.28363363  .00005835  00000+0  52414-3 0  9990
2 64586  97.7600 210.8807 0004129 191.1342 168.9789 14.96078367 43043
LEMUR-2-HUBBLE-5        
1 64840U 25135BT  26094.88687434  .00003152  00000+0  30166-3 0  9996
2 64840  97.7626 210.2467 0004869 208.6717 151.4236 14.93911302 42967
LEMUR-2-KARENDARRELL    
1 64841U 25135BU  26095.25287913  .00013401  00000+0  11068-2 0  9994
2 64841  97.7608 211.6536 0008679 112.6375 247.5767 14.99063638 43083
LEMUR-2-LUCILLE-ROSE    
1 65403U 25135BV  26095.29475965  .00011701  00000+0  96580-3 0  9993
2 65403  97.7645 211.6803 0010250 155.5548 204.6162 14.99108450 37710
LEMUR-2-AFFIE-WAUWIE    
1 66295U 25248C   26095.19274116  .00022990  00000+0  91811-3 0  9996
2 66295  45.4002 149.7215 0007892  17.4572 342.6587 15.24807376 23447
LEMUR-2-DEANANDMAEVE    
1 66678U 25276N   26095.14030434  .00009679  00000+0  46781-3 0  9995
2 66678  97.4245 169.8682 0004547 246.7754 113.3002 15.18819782 19326
LEMUR-2-STAS-GORBUK     
1 66686U 25276W   26095.27291053  .00008581  00000+0  41782-3 0  9991
2 66686  97.4282 170.0515 0003918 238.6443 121.4408 15.18601429 19340
LEMUR-2-TEODOR          
1 66768U 25276DG  26095.20494340  .00008919  00000+0  41385-3 0  9993
2 66768  97.4181 170.1302 0002112  83.0962 277.0514 15.20266742 19352
LEMUR-2-LAILA           
1 66776U 25276DQ  26095.18920271  .00008020  00000+0  37018-3 0  9997
2 66776  97.4205 170.1895 0002797  88.5229 271.6327 15.20478381 19356
LEMUR-2-CELIJO-SB-PK    
1 66781U 25276DW  26095.16690206  .00010214  00000+0  84334-3 0  9994
2 66781  97.5302 168.3782 0010728  31.9486 328.2385 14.99121095 11688
LEMUR-2-FINNIAN         
1 66782U 25276DX  26095.16496069  .00009741  00000+0  79582-3 0  9998
2 66782  97.5337 168.5399 0006085  27.6401 332.5145 14.99573297  9058
