[{"OBJECT_NAME":"LEMUR-2-KREMPEL-BRO1","OBJECT_ID":"2025-061G","EPOCH":"2026-04-05T05:41:04.560576","MEAN_MOTION":15.14043348,"ECCENTRICITY":0.0020198,"INCLINATION":97.5568,"RA_OF_ASC_NODE":71.6231,"ARG_OF_PERICENTER":136.734,"MEAN_ANOMALY":223.5483,"EPHEMERIS_TYPE":0,"CLASSIFICATION_TYPE":"U","NORAD_CAT_ID":63357,"ELEMENT_SET_NO":999,"REV_AT_EPOCH":5659,"BSTAR":0.00030866846,"MEAN_MOTION_DOT":5.571e-5,"MEAN_MOTION_DDOT":0},{"OBJECT_NAME":"LEMUR-2-LANGER2SPACE","OBJECT_ID":"2025-061H","EPOCH":"2026-04-05T04:23:06.148320","MEAN_MOTION":15.13739157,"ECCENTRICITY":0.00179588,"INCLINATION":97.5576,"RA_OF_ASC_NODE":71.4127,"ARG_OF_PERICENTER":144.6346,"MEAN_ANOMALY":215.608,"EPHEMERIS_TYPE":0,"CLASSIFICATION_TYPE":"U","NORAD_CAT_ID":63358,"ELEMENT_SET_NO":999,"REV_AT_EPOCH":5657,"BSTAR":0.0003045086,"MEAN_MOTION_DOT":5.443e-5,"MEAN_MOTION_DDOT":0},{"OBJECT_NAME":"LEMUR-2-BALTO","OBJECT_ID":"2025-052BH","EPOCH":"2026-04-05T04:38:38.975424","MEAN_MOTION":14.99363344,"ECCENTRICITY":7.109e-5,"INCLINATION":97.6985,"RA_OF_ASC_NODE":349.6896,"ARG_OF_PERICENTER":89.0118,"MEAN_ANOMALY":271.1186,"EPHEMERIS_TYPE":0,"CLASSIFICATION_TYPE":"U","NORAD_CAT_ID":63395,"ELEMENT_SET_NO":999,"REV_AT_EPOCH":5782,"BSTAR":0.00076132793,"MEAN_MOTION_DOT":9.26e-5,"MEAN_MOTION_DDOT":0},{"OBJECT_NAME":"LEMUR-2-KRISH","OBJECT_ID":"2025-135AK","EPOCH":"2026-04-05T07:04:55.809696","MEAN_MOTION":14.95528805,"ECCENTRICITY":0.00011586,"INCLINATION":97.7652,"RA_OF_ASC_NODE":210.7556,"ARG_OF_PERICENTER":95.9812,"MEAN_ANOMALY":264.1541,"EPHEMERIS_TYPE":0,"CLASSIFICATION_TYPE":"U","NORAD_CAT_ID":64561,"ELEMENT_SET_NO":999,"REV_AT_EPOCH":4302,"BSTAR":0.00070042793,"MEAN_MOTION_DOT":7.709e-5,"MEAN_MOTION_DDOT":0},{"OBJECT_NAME":"LEMUR-2-HUBBLE-4","OBJECT_ID":"2025-135AP","EPOCH":"2026-04-05T07:04:31.834560","MEAN_MOTION":14.92996184,"ECCENTRICITY":0.00032679,"INCLINATION":97.7602,"RA_OF_ASC_NODE":210.1242,"ARG_OF_PERICENTER":146.9163,"MEAN_ANOMALY":213.2261,"EPHEMERIS_TYPE":0,"CLASSIFICATION_TYPE":"U","NORAD_CAT_ID":64565,"ELEMENT_SET_NO":999,"REV_AT_EPOCH":4299,"BSTAR":0.0002435516,"MEAN_MOTION_DOT":2.475e-5,"MEAN_MOTION_DDOT":0},{"OBJECT_NAME":"LEMUR-2-SEJONG-2","OBJECT_ID":"2025-135BL","EPOCH":"2026-04-05T06:48:25.945632","MEAN_MOTION":14.96078367,"ECCENTRICITY":0.00041296,"INCLINATION":97.76,"RA_OF_ASC_NODE":210.8807,"ARG_OF_PERICENTER":191.1342,"MEAN_ANOMALY":168.9789,"EPHEMERIS_TYPE":0,"CLASSIFICATION_TYPE":"U","NORAD_CAT_ID":64586,"ELEMENT_SET_NO":999,"REV_AT_EPOCH":4304,"BSTAR":0.00052414015,"MEAN_MOTION_DOT":5.835e-5,"MEAN_MOTION_DDOT":0},{"OBJECT_NAME":"LEMUR-2-HUBBLE-5","OBJECT_ID":"2025-135BT","EPOCH":"2026-04-04T21:17:05.942976","MEAN_MOTION":14.93911302,"ECCENTRICITY":0.00048699,"INCLINATION":97.7626,"RA_OF_ASC_NODE":210.2467,"ARG_OF_PERICENTER":208.6717,"MEAN_ANOMALY":151.4236,"EPHEMERIS_TYPE":0,"CLASSIFICATION_TYPE":"U","NORAD_CAT_ID":64840,"ELEMENT_SET_NO":999,"REV_AT_EPOCH":4296,"BSTAR":0.00030166069,"MEAN_MOTION_DOT":3.152e-5,"MEAN_MOTION_DDOT":0},{"OBJECT_NAME":"LEMUR-2-KARENDARRELL","OBJECT_ID":"2025-135BU","EPOCH":"2026-04-05T06:04:08.756832","MEAN_MOTION":14.99063638,"ECCENTRICITY":0.00086797,"INCLINATION":97.7608,"RA_OF_ASC_NODE":211.6536,"ARG_OF_PERICENTER":112.6375,"MEAN_ANOMALY":247.5767,"EPHEMERIS_TYPE":0,"CLASSIFICATION_TYPE":"U","NORAD_CAT_ID":64841,"ELEMENT_SET_NO":999,"REV_AT_EPOCH":4308,"BSTAR":0.001106771,"MEAN_MOTION_DOT":0.00013401,"MEAN_MOTION_DDOT":0},{"OBJECT_NAME":"LEMUR-2-LUCILLE-ROSE","OBJECT_ID":"2025-135BV","EPOCH":"2026-04-05T07:04:27.233760","MEAN_MOTION":14.9910845,"ECCENTRICITY":0.00102507,"INCLINATION":97.7645,"RA_OF_ASC_NODE":211.6803,"ARG_OF_PERICENTER":155.5548,"MEAN_ANOMALY":204.6162,"EPHEMERIS_TYPE":0,"CLASSIFICATION_TYPE":"U","NORAD_CAT_ID":65403,"ELEMENT_SET_NO":999,"REV_AT_EPOCH":3771,"BSTAR":0.00096580277,"MEAN_MOTION_DOT":0.00011701,"MEAN_MOTION_DDOT":0},{"OBJECT_NAME":"LEMUR-2-AFFIE-WAUWIE","OBJECT_ID":"2025-248C","EPOCH":"2026-04-05T04:37:32.836224","MEAN_MOTION":15.24807376,"ECCENTRICITY":0.00078929,"INCLINATION":45.4002,"RA_OF_ASC_NODE":149.7215,"ARG_OF_PERICENTER":17.4572,"MEAN_ANOMALY":342.6587,"EPHEMERIS_TYPE":0,"CLASSIFICATION_TYPE":"U","NORAD_CAT_ID":66295,"ELEMENT_SET_NO":999,"REV_AT_EPOCH":2344,"BSTAR":0.00091811398,"MEAN_MOTION_DOT":0.0002299,"MEAN_MOTION_DDOT":0},{"OBJECT_NAME":"LEMUR-2-DEANANDMAEVE","OBJECT_ID":"2025-276N","EPOCH":"2026-04-05T03:22:02.294976","MEAN_MOTION":15.18819782,"ECCENTRICITY":0.00045472,"INCLINATION":97.4245,"RA_OF_ASC_NODE":169.8682,"ARG_OF_PERICENTER":246.7754,"MEAN_ANOMALY":113.3002,"EPHEMERIS_TYPE":0,"CLASSIFICATION_TYPE":"U","NORAD_CAT_ID":66678,"ELEMENT_SET_NO":999,"REV_AT_EPOCH":1932,"BSTAR":0.00046781318,"MEAN_MOTION_DOT":9.679e-5,"MEAN_MOTION_DDOT":0},{"OBJECT_NAME":"LEMUR-2-STAS-GORBUK","OBJECT_ID":"2025-276W","EPOCH":"2026-04-05T06:32:59.469792","MEAN_MOTION":15.18601429,"ECCENTRICITY":0.00039186,"INCLINATION":97.4282,"RA_OF_ASC_NODE":170.0515,"ARG_OF_PERICENTER":238.6443,"MEAN_ANOMALY":121.4408,"EPHEMERIS_TYPE":0,"CLASSIFICATION_TYPE":"U","NORAD_CAT_ID":66686,"ELEMENT_SET_NO":999,"REV_AT_EPOCH":1934,"BSTAR":0.00041782296,"MEAN_MOTION_DOT":8.581e-5,"MEAN_MOTION_DDOT":0},{"OBJECT_NAME":"LEMUR-2-TEODOR","OBJECT_ID":"2025-276DG","EPOCH":"2026-04-05T04:55:07.109760","MEAN_MOTION":15.20266742,"ECCENTRICITY":0.00021127,"INCLINATION":97.4181,"RA_OF_ASC_NODE":170.1302,"ARG_OF_PERICENTER":83.0962,"MEAN_ANOMALY":277.0514,"EPHEMERIS_TYPE":0,"CLASSIFICATION_TYPE":"U","NORAD_CAT_ID":66768,"ELEMENT_SET_NO":999,"REV_AT_EPOCH":1935,"BSTAR":0.00041384587,"MEAN_MOTION_DOT":8.919e-5,"MEAN_MOTION_DDOT":0},{"OBJECT_NAME":"LEMUR-2-LAILA","OBJECT_ID":"2025-276DQ","EPOCH":"2026-04-05T04:32:27.114144","MEAN_MOTION":15.20478381,"ECCENTRICITY":0.00027978,"INCLINATION":97.4205,"RA_OF_ASC_NODE":170.1895,"ARG_OF_PERICENTER":88.5229,"MEAN_ANOMALY":271.6327,"EPHEMERIS_TYPE":0,"CLASSIFICATION_TYPE":"U","NORAD_CAT_ID":66776,"ELEMENT_SET_NO":999,"REV_AT_EPOCH":1935,"BSTAR":0.00037017629,"MEAN_MOTION_DOT":8.02e-5,"MEAN_MOTION_DDOT":0},{"OBJECT_NAME":"LEMUR-2-CELIJO-SB-PK","OBJECT_ID":"2025-276DW","EPOCH":"2026-04-05T04:00:20.337984","MEAN_MOTION":14.99121095,"ECCENTRICITY":0.00107284,"INCLINATION":97.5302,"RA_OF_ASC_NODE":168.3782,"ARG_OF_PERICENTER":31.9486,"MEAN_ANOMALY":328.2385,"EPHEMERIS_TYPE":0,"CLASSIFICATION_TYPE":"U","NORAD_CAT_ID":66781,"ELEMENT_SET_NO":999,"REV_AT_EPOCH":1168,"BSTAR":0.00084334269,"MEAN_MOTION_DOT":0.00010214,"MEAN_MOTION_DDOT":0},{"OBJECT_NAME":"LEMUR-2-FINNIAN","OBJECT_ID":"2025-276DX","EPOCH":"2026-04-05T03:57:32.603616","MEAN_MOTION":14.99573297,"ECCENTRICITY":0.00060854,"INCLINATION":97.5337,"RA_OF_ASC_NODE":168.5399,"ARG_OF_PERICENTER":27.6401,"MEAN_ANOMALY":332.5145,"EPHEMERIS_TYPE":0,"CLASSIFICATION_TYPE":"U","NORAD_CAT_ID":66782,"ELEMENT_SET_NO":999,"REV_AT_EPOCH":905,"BSTAR":0.00079582203,"MEAN_MOTION_DOT":9.741e-5,"MEAN_MOTION_DDOT":0}]
